ONEWEB-0431             
1 51630U 22012J   23359.60234290  .00000701  00000+0  19713-2 0  9990
2 51630  87.8898 215.9424 0002099  96.1088 264.0278 13.10370988 90877
ONEWEB-0434             
1 51631U 22012K   23359.57971898  .00000054  00000+0  11947-3 0  9992
2 51631  87.8912 215.9497 0001291  96.2743 263.8531 13.10376505 90855
ONEWEB-0435             
1 51632U 22012L   23359.58784575  .00000405  00000+0  11225-2 0  9996
2 51632  87.8910 215.9375 0001407 102.2980 257.8305 13.10376474 90845
ONEWEB-0436             
1 51633U 22012M   23359.58548576  .00000596  00000+0  15007-2 0  9999
2 51633  87.9199 185.7120 0001370  99.1888 260.9399 13.17646597 94551
ONEWEB-0438             
1 51634U 22012N   23359.57158078 -.00000461  00000+0 -13568-2 0  9996
2 51634  87.8912 215.9415 0001265  74.1616 285.9650 13.10373538 90875
ONEWEB-0439             
1 51635U 22012P   23359.57484113 -.00004617  00000+0 -13263-1 0  9997
2 51635  87.8912 215.9245 0001491  83.7525 276.3772 13.10399742 90855
ONEWEB-0442             
1 51636U 22012Q   23359.57755947  .00000023  00000+0  25440-4 0  9992
2 51636  87.9204 185.7423 0001777  61.3885 298.7425 13.17647081 94543
ONEWEB-0443             
1 51637U 22012R   23359.59654104  .00000074  00000+0  15861-3 0  9999
2 51637  87.9204 185.7434 0001136 109.4869 250.6386 13.17648599 94594
